******************************************************************************* Revised: Jun 05, 2014                Saturn                                699  PHYSICAL DATA (updated 2009-May-26):  Mass (10^26 kg)       = 5.68319         Density (g/cm^3)       =  0.687+-.001  Equat. radius (1 bar) = 60268+-4 km     Polar radius (km)      = 54364+-10  Volumetric mean radius= 58232+-6 km     Flattening             =  0.09796  Rotation period       = 10h 39m 22.4s   Rot. rate(10^-4 rad/s) =  1.63785   m = w^2a^3/GM         =  0.15481        Hydrostatic flat., fh  =  0.09829  Inferred rot. period  = 10.61+-0.02 hr  ks = 3*J2/m            =  0.317  Mom. of inert. I/MRo^2=  0.210          I/MRo^2 (upper bound)  =  0.231   Rocky core mass (Mc/M)=  0.1027         Y factor (He/H ratio)  =    GM (km^3/s^2)         = 37931207.8      GM 1-sigma (km^3/s^2)  = +- 98  Equ. grav, ge (m/s^2) = 10.44           Pol. grav, gp (m/s^2)  = 12.14+-0.01  Geometric albedo      =  0.47           Visual magnitude V(1,0)= -8.88  Vis. mag. (opposition)= +0.67           Obliquity to orbit     = 26.73 deg  Sidereal orbit period = 29.447498 yr    Sidereal orbit period  = 10755.698 d  Mean daily motion     = 0.0334979 deg/d Mean orbit velocity    =  9.6624 km/s  Atmos. temp. (1 bar)  = 134+-4 K        Heat flow/mass (x10^7) = 15 erg/gm*s  Planetary Solar Const =  15.04 W/m^2    Dipole tilt/offset     = 0.0deg/0.0Rp   Escape velocity (km/s)=  35.5           Mag.dip.mom(gauss-Rp^3)= 0.21  Aroche(ice)/Rp        =  2.71           Hill's sphere rad. Rp  = 1100*******************************************************************************  *******************************************************************************Ephemeris / WWW_USER Tue Sep  2 11:27:14 2014 Pasadena, USA      / Horizons    *******************************************************************************Target body name: Saturn (699)                    {source: SAT368}Center body name: Solar System Barycenter (0)     {source: DE-0431LE-0431}Center-site name: BODY CENTER*******************************************************************************Start time      : A.D. 2012-Jan-01 00:00:00.0000 CT Stop  time      : A.D. 2012-Jan-02 00:00:00.0000 CT Step-size       : 60 minutes*******************************************************************************Center geodetic : 0.00000000,0.00000000,0.0000000 {E-lon(deg),Lat(deg),Alt(km)}Center cylindric: 0.00000000,0.00000000,0.0000000 {E-lon(deg),Dxy(km),Dz(km)}Center radii    : (undefined)                                                  Output units    : AU-D                                                         Output format   : 03Reference frame : ICRF/J2000.0                                                 Output type     : GEOMETRIC cartesian statesCoordinate systm: Ecliptic and Mean Equinox of Reference Epoch                 *******************************************************************************JDCT    X     Y     Z   VX    VY    VZ   LT    RG    RR*******************************************************************************$$SOE2455927.500000000 = A.D. 2012-Jan-01 00:00:00.0000 (CT)  -8.943506571726230E+00 -3.720744113315495E+00  4.206153318015197E-01   1.842572813371617E-03 -5.163338894101726E-03  1.648345772244844E-05   5.599786146107869E-02  9.695729153221468E+00  2.825299553812090E-042455927.541666667 = A.D. 2012-Jan-01 01:00:00.0000 (CT)  -8.943429795327587E+00 -3.720959251143242E+00  4.206160183666440E-01   1.842694258848834E-03 -5.163276840104382E-03  1.647167551101131E-05   5.599792945003787E-02  9.695740925144831E+00  2.825224248306378E-042455927.583333333 = A.D. 2012-Jan-01 02:00:00.0000 (CT)  -8.943353013876536E+00 -3.721174386385906E+00  4.206167044418591E-01   1.842815329405357E-03 -5.163214815162923E-03  1.645994469272427E-05   5.599799743722772E-02  9.695752696761843E+00  2.825152522654588E-042455927.625000000 = A.D. 2012-Jan-01 03:00:00.0000 (CT)  -8.943276227388603E+00 -3.721389519045334E+00  4.206173900296341E-01   1.842936030571953E-03 -5.163152849862931E-03  1.644828097666828E-05   5.599806542273537E-02  9.695764468087594E+00  2.825084449944398E-042455927.666666667 = A.D. 2012-Jan-01 04:00:00.0000 (CT)  -8.943199435878959E+00 -3.721604649124647E+00  4.206180751330834E-01   1.843056374071478E-03 -5.163090974638637E-03  1.643669950677804E-05   5.599813340664907E-02  9.695776239137357E+00  2.825020045358706E-042455927.708333333 = A.D. 2012-Jan-01 05:00:00.0000 (CT)  -8.943122639362153E+00 -3.721819776628209E+00  4.206187597559291E-01   1.843176377760711E-03 -5.163029218476305E-03  1.642521417811102E-05   5.599820138905659E-02  9.695788009926339E+00  2.824959261441391E-042455927.750000000 = A.D. 2012-Jan-01 06:00:00.0000 (CT)  -8.943045837851875E+00 -3.722034901561541E+00  4.206194439024352E-01   1.843296065179424E-03 -5.162967607699075E-03  1.641383702488830E-05   5.599826937004390E-02  9.695799780469414E+00  2.824901987327517E-042455927.791666667 = A.D. 2012-Jan-01 07:00:00.0000 (CT)  -8.942969031360720E+00 -3.722250023931186E+00  4.206201275773193E-01   1.843415464767043E-03 -5.162906164914616E-03  1.640257771973951E-05   5.599833734969350E-02  9.695811550780872E+00  2.824848051710838E-042455927.833333333 = A.D. 2012-Jan-01 08:00:00.0000 (CT)  -8.942892219900026E+00 -3.722465143744536E+00  4.206208107856464E-01   1.843534608833420E-03 -5.162844908176921E-03  1.639144320561186E-05   5.599840532808310E-02  9.695823320874171E+00  2.824797228956596E-042455927.875000000 = A.D. 2012-Jan-01 09:00:00.0000 (CT)  -8.942815403479715E+00 -3.722680261009633E+00  4.206214935327097E-01   1.843653532382141E-03 -5.162783850384879E-03  1.638043746547752E-05   5.599847330528445E-02  9.695835090761728E+00  2.824749247541687E-042455927.916666667 = A.D. 2012-Jan-01 10:00:00.0000 (CT)  -8.942738582108216E+00 -3.722895375734937E+00  4.206221758239045E-01   1.843772271882002E-03 -5.162722998915784E-03  1.636956142197613E-05   5.599854128136226E-02  9.695846860454752E+00  2.824703799929472E-042455927.958333333 = A.D. 2012-Jan-01 11:00:00.0000 (CT)  -8.942661755792438E+00 -3.723110487929101E+00  4.206228576646013E-01   1.843890864066151E-03 -5.162662355474029E-03  1.635881295057436E-05   5.599860925637357E-02  9.695858629963119E+00  2.824660553063743E-042455928.000000000 = A.D. 2012-Jan-01 12:00:00.0000 (CT)  -8.942584924537758E+00 -3.723325597600730E+00  4.206235390600199E-01   1.844009344811363E-03 -5.162601916125178E-03  1.634818698625212E-05   5.599867723036717E-02  9.695870399295268E+00  2.824619158875146E-042455928.041666667 = A.D. 2012-Jan-01 13:00:00.0000 (CT)  -8.942508088348109E+00 -3.723540704758152E+00  4.206242200151110E-01   1.844127748116219E-03 -5.162541671483906E-03  1.633767570513178E-05   5.599874520338336E-02  9.695882168458191E+00  2.824579264498082E-042455928.083333333 = A.D. 2012-Jan-01 14:00:00.0000 (CT)  -8.942431247226057E+00 -3.723755809409192E+00  4.206249005344456E-01   1.844246105162097E-03 -5.162481607030685E-03  1.632726876830874E-05   5.599881317545409E-02  9.695893937457408E+00  2.824540522244986E-042455928.125000000 = A.D. 2012-Jan-01 15:00:00.0000 (CT)  -8.942354401172940E+00 -3.723970911560975E+00  4.206255806221174E-01   1.844364443411907E-03 -5.162421703545295E-03  1.631695362429778E-05   5.599888114660298E-02  9.695905706297015E+00  2.824502599706597E-042455928.166666667 = A.D. 2012-Jan-01 16:00:00.0000 (CT)  -8.942277550189047E+00 -3.724186011219734E+00  4.206262602816566E-01   1.844482785686855E-03 -5.162361937663297E-03  1.630671587722369E-05   5.599894911684604E-02  9.695917474979781E+00  2.824465190555625E-042455928.208333333 = A.D. 2012-Jan-01 17:00:00.0000 (CT)  -8.942200694273835E+00 -3.724401108390654E+00  4.206269395159631E-01   1.844601149171239E-03 -5.162302282581644E-03  1.629653973812738E-05   5.599901708619229E-02  9.695929243507274E+00  2.824428026623526E-042455928.250000000 = A.D. 2012-Jan-01 18:00:00.0000 (CT)  -8.942123833426173E+00 -3.724616203077748E+00  4.206276183272595E-01   1.844719544340652E-03 -5.162242708957826E-03  1.628640858345129E-05   5.599908505464495E-02  9.695941011880041E+00  2.824390891473908E-042455928.291666667 = A.D. 2012-Jan-01 19:00:00.0000 (CT)  -8.942046967644659E+00 -3.724831295283772E+00  4.206282967170702E-01   1.844837973903025E-03 -5.162183186058852E-03  1.627630564483006E-05   5.599915302220272E-02  9.695952780097866E+00  2.824353634875099E-042455928.333333333 = A.D. 2012-Jan-01 20:00:00.0000 (CT)  -8.941970096927948E+00 -3.725046385010196E+00  4.206289746862311E-01   1.844956431998877E-03 -5.162123683216587E-03  1.626621484369898E-05   5.599922098886166E-02  9.695964548160061E+00  2.824316186123036E-042455928.375000000 = A.D. 2012-Jan-01 21:00:00.0000 (CT)  -8.941893221275127E+00 -3.725261472257249E+00  4.206296522349408E-01   1.845074904142868E-03 -5.162064171628047E-03  1.625612175847330E-05   5.599928895461716E-02  9.695976316065835E+00  2.824278561912377E-042455928.416666667 = A.D. 2012-Jan-01 22:00:00.0000 (CT)  -8.941816340686039E+00 -3.725476557024030E+00  4.206303293628482E-01   1.845193368720488E-03 -5.162004626496358E-03  1.624601466622540E-05   5.599935691946609E-02  9.695988083814633E+00  2.824240861209820E-042455928.458333333 = A.D. 2012-Jan-01 23:00:00.0000 (CT)  -8.941739455161512E+00 -3.725691639308732E+00  4.206310060691879E-01   1.845311801300195E-03 -5.161945029431956E-03  1.623588552920150E-05   5.599942488340832E-02  9.695999851406448E+00  2.824203235143571E-042455928.500000000 = A.D. 2012-Jan-02 00:00:00.0000 (CT)  -8.941662564703305E+00 -3.725906719108957E+00  4.206316823529497E-01   1.845430183602751E-03 -5.161885370915773E-03  1.622573069316485E-05   5.599949284644740E-02  9.696011618841885E+00  2.824165814063856E-04$$EOE*******************************************************************************Coordinate system description:  Ecliptic and Mean Equinox of Reference Epoch    Reference epoch: J2000.0    xy-plane: plane of the Earth's orbit at the reference epoch    x-axis  : out along ascending node of instantaneous plane of the Earth's              orbit and the Earth's mean equator at the reference epoch    z-axis  : perpendicular to the xy-plane in the directional (+ or -) sense              of Earth's north pole at the reference epoch.Symbol meaning [1 au=149597870.700 km, 1 day=86400.0 s]:    JDCT     Epoch Julian Date, Coordinate Time      X      x-component of position vector (AU)                                     Y      y-component of position vector (AU)                                     Z      z-component of position vector (AU)                                     VX     x-component of velocity vector (AU/day)                                 VY     y-component of velocity vector (AU/day)                                 VZ     z-component of velocity vector (AU/day)                                 LT     One-way down-leg Newtonian light-time (day)                             RG     Range; distance from coordinate center (AU)                             RR     Range-rate; radial velocity wrt coord. center (AU/day)            Geometric states/elements have no aberration corrections applied. Computations by ...     Solar System Dynamics Group, Horizons On-Line Ephemeris System     4800 Oak Grove Drive, Jet Propulsion Laboratory     Pasadena, CA  91109   USA     Information: http://ssd.jpl.nasa.gov/     Connect    : telnet://ssd.jpl.nasa.gov:6775  (via browser)                  telnet ssd.jpl.nasa.gov 6775    (via command-line)     Author     : Jon.Giorgini@jpl.nasa.gov*******************************************************************************